NORAD_CAT_ID,OBJECT_NAME,OBJECT_TYPE,EPOCH,MEAN_MOTION,ECCENTRICITY,INCLINATION,RA_OF_ASC_NODE,ARG_OF_PERICENTER,MEAN_ANOMALY,BSTAR,MEAN_MOTION_DOT,MEAN_MOTION_DDOT,TLE_LINE0,TLE_LINE1,TLE_LINE2,SEMIMAJOR_AXIS,PERIOD,APOGEE,PERIGEE,DECAYED
51982.0,STARLINK-3650,PAYLOAD,2023-04-28 12:48:33,15.08849485,0.0001202,53.2159,55.4969,98.0773,262.0356,0.00035895,5.431e-05,0.0,0 STARLINK-3650,1 51982U 22025AC  23118.53371749  .00005431  00000-0  35895-3 0  9996,2 51982  53.2159  55.4969 0001202  98.0773 262.0356 15.08849485 63127,6917.851,95.437,540.548,538.885,0.0
51982.0,STARLINK-3650,PAYLOAD,2023-04-29 01:31:38,15.08846544,0.0001194,53.2155,53.1181,101.2257,258.887,4.0174e-05,3.52e-06,0.0,0 STARLINK-3650,1 51982U 22025AC  23119.06363648  .00000352  00000-0  40174-4 0  9998,2 51982  53.2155  53.1181 0001194 101.2257 258.8870 15.08846544 64306,6917.86,95.437,540.551,538.899,0.0
51982.0,STARLINK-3650,PAYLOAD,2023-04-29 06:17:47,15.08853379,0.0001185,53.2162,52.224,90.1242,269.9886,0.00021186,3.087e-05,0.0,0 STARLINK-3650,1 51982U 22025AC  23119.26235366  .00003087  00000-0  21186-3 0  9994,2 51982  53.2162  52.2240 0001185  90.1242 269.9886 15.08853379 63235,6917.839,95.437,540.524,538.885,0.0
51982.0,STARLINK-3650,PAYLOAD,2023-04-30 01:22:25,15.08845426,0.000113,53.2159,48.6539,106.4645,253.6471,0.00036864,5.585e-05,0.0,0 STARLINK-3650,1 51982U 22025AC  23120.05723569  .00005585  00000-0  36864-3 0  9994,2 51982  53.2159  48.6539 0001130 106.4645 253.6471 15.08845426 64458,6917.864,95.437,540.511,538.947,0.0
51982.0,STARLINK-3650,PAYLOAD,2023-04-30 04:33:11,15.08849623,0.0001162,53.216,48.0588,105.5073,254.6047,0.00051673,7.948e-05,0.0,0 STARLINK-3650,1 51982U 22025AC  23120.18971487  .00007948  00000-0  51673-3 0  9992,2 51982  53.2160  48.0588 0001162 105.5073 254.6047 15.08849623 63371,6917.851,95.437,540.52,538.912,0.0
51982.0,STARLINK-3650,PAYLOAD,2023-05-01 01:13:12,15.08838293,0.0001341,53.2169,44.1919,96.8551,263.2594,7.8021e-05,9.54e-06,0.0,0 STARLINK-3650,1 51982U 22025AC  23121.05083992  .00000954  00000-0  78021-4 0  9991,2 51982  53.2169  44.1919 0001341  96.8551 263.2594 15.08838293 64608,6917.886,95.438,540.678,538.823,0.0
51982.0,STARLINK-3650,PAYLOAD,2023-05-01 04:23:58,15.08841399,0.0001354,53.217,43.5969,100.9431,259.1713,0.00015439,2.17e-05,0.0,0 STARLINK-3650,1 51982U 22025AC  23121.18331910  .00002170  00000-0  15439-3 0  9996,2 51982  53.2170  43.5969 0001354 100.9431 259.1713 15.08841399 63524,6917.876,95.437,540.678,538.804,0.0
51982.0,STARLINK-3650,PAYLOAD,2023-05-02 04:14:45,15.08843314,0.0001356,53.2179,39.1356,109.1825,250.9314,7.8258e-05,9.58e-06,0.0,0 STARLINK-3650,1 51982U 22025AC  23122.17691870  .00000958  00000-0  78258-4 0  9991,2 51982  53.2179  39.1356 0001356 109.1825 250.9314 15.08843314 64777,6917.87,95.437,540.673,538.797,0.0
51982.0,STARLINK-3650,PAYLOAD,2023-05-02 21:44:00,15.08843093,0.0001452,53.2181,35.8646,116.6216,243.4925,0.00014461,2.014e-05,0.0,0 STARLINK-3650,1 51982U 22025AC  23122.90555820  .00002014  00000-0  14461-3 0  9996,2 51982  53.2181  35.8646 0001452 116.6216 243.4925 15.08843093 63788,6917.871,95.437,540.74,538.731,0.0
51982.0,STARLINK-3650,PAYLOAD,2023-05-03 00:54:46,15.08847187,0.0001248,53.2173,35.2727,76.7982,283.3149,0.00020269,2.94e-05,0.0,0 STARLINK-3650,1 51982U 22025AC  23123.03803759  .00002940  00000-0  20269-3 0  9999,2 51982  53.2173  35.2727 0001248  76.7982 283.3149 15.08847187 63804,6917.858,95.437,540.587,538.86,0.0
51982.0,STARLINK-3650,PAYLOAD,2023-05-03 18:24:01,15.0883908,0.0001164,53.2169,32.0042,80.2143,279.898,-6.2974e-05,-1.29e-05,0.0,0 STARLINK-3650,1 51982U 22025AC  23123.76668185 -.00001290  00000-0 -62974-4 0  9990,2 51982  53.2169  32.0042 0001164  80.2143 279.8980 15.08839080 65011,6917.883,95.438,540.553,538.943,0.0
51982.0,STARLINK-3650,PAYLOAD,2023-05-03 21:34:47,15.08838388,0.0001069,53.2161,31.4102,90.2126,269.8988,-4.0104e-05,-9.26e-06,0.0,0 STARLINK-3650,1 51982U 22025AC  23123.89916220 -.00000926  00000-0 -40104-4 0  9996,2 51982  53.2161  31.4102 0001069  90.2126 269.8988 15.08838388 63935,6917.885,95.438,540.49,539.011,0.0
51982.0,STARLINK-3650,PAYLOAD,2023-05-04 10:17:51,15.08858755,0.0001021,53.2166,29.0304,98.841,261.2697,0.00024246,3.575e-05,0.0,0 STARLINK-3650,1 51982U 22025AC  23124.42906840  .00003575  00000-0  24246-3 0  9992,2 51982  53.2166  29.0304 0001021  98.8410 261.2697 15.08858755 64018,6917.823,95.436,540.394,538.982,0.0
51982.0,STARLINK-3650,PAYLOAD,2023-05-04 18:14:48,15.08832777,0.0001138,53.2167,27.5434,92.9051,267.2071,-0.00015461,-2.747e-05,0.0,0 STARLINK-3650,1 51982U 22025AC  23124.76028108 -.00002747  00000-0 -15461-3 0  9992,2 51982  53.2167  27.5434 0001138  92.9051 267.2071 15.08832777 65166,6917.902,95.438,540.555,538.98,0.0
51982.0,STARLINK-3650,PAYLOAD,2023-05-04 21:25:34,15.08832762,0.0001245,53.217,26.9486,95.8783,264.2351,-0.00012791,-2.323e-05,0.0,0 STARLINK-3650,1 51982U 22025AC  23124.89276133 -.00002323  00000-0 -12791-3 0  9992,2 51982  53.2170  26.9486 0001245  95.8783 264.2351 15.08832762 64085,6917.903,95.438,540.629,538.906,0.0
51982.0,STARLINK-3650,PAYLOAD,2023-05-05 21:16:22,15.08836064,0.0001185,53.218,22.4882,99.1512,260.9614,4.3594e-05,4.06e-06,0.0,0 STARLINK-3650,1 51982U 22025AC  23125.88636855  .00000406  00000-0  43594-4 0  9997,2 51982  53.2180  22.4882 0001185  99.1512 260.9614 15.08836064 64238,6917.892,95.438,540.577,538.938,0.0
51982.0,STARLINK-3650,PAYLOAD,2023-05-06 00:27:08,15.08838109,0.0001227,53.2172,21.894,97.8185,262.2947,4.9998e-05,5.08e-06,0.0,0 STARLINK-3650,1 51982U 22025AC  23126.01884388  .00000508  00000-0  49998-4 0  9996,2 51982  53.2172  21.8940 0001227  97.8185 262.2947 15.08838109 65355,6917.886,95.438,540.6,538.902,0.0
51982.0,STARLINK-3650,PAYLOAD,2023-05-07 01:53:17,15.08858832,0.000122,53.2165,17.1363,99.8939,260.2191,0.0005682,8.771e-05,0.0,0 STARLINK-3650,1 51982U 22025AC  23127.07867781  .00008771  00000-0  56820-3 0  9992,2 51982  53.2165  17.1363 0001220  99.8939 260.2191 15.08858832 65518,6917.823,95.436,540.532,538.844,0.0
51982.0,STARLINK-3650,PAYLOAD,2023-05-07 22:33:19,15.08833122,0.0001226,53.216,13.2712,79.0337,281.0793,6.9912e-05,8.25e-06,0.0,0 STARLINK-3650,1 51982U 22025AC  23127.93981082  .00000825  00000-0  69912-4 0  9997,2 51982  53.2160  13.2712 0001226  79.0337 281.0793 15.08833122 64542,6917.901,95.438,540.615,538.918,0.0
51982.0,STARLINK-3650,PAYLOAD,2023-05-08 20:48:43,15.08857114,0.0001269,53.2158,9.1087,70.8772,289.2357,0.0011073,0.00017387,0.0,0 STARLINK-3650,1 51982U 22025AC  23128.86717096  .00017387  00000-0  11073-2 0  9996,2 51982  53.2158   9.1087 0001269  70.8772 289.2357 15.08857114 65787,6917.828,95.436,540.571,538.815,0.0
51982.0,STARLINK-3650,PAYLOAD,2023-05-08 22:24:06,15.0886144,0.0001269,53.2158,8.8114,70.6067,289.5062,0.0011939,0.00018775,0.0,0 STARLINK-3650,1 51982U 22025AC  23128.93340983  .00018775  00000-0  11939-2 0  9994,2 51982  53.2158   8.8114 0001269  70.6067 289.5062 15.08861440 64691,6917.815,95.436,540.558,538.802,0.0
51982.0,STARLINK-3650,PAYLOAD,2023-05-09 22:14:53,15.08857628,0.000106,53.2161,4.3506,82.825,277.2863,0.00063564,9.848e-05,0.0,0 STARLINK-3650,1 51982U 22025AC  23129.92700559  .00009848  00000-0  63564-3 0  9996,2 51982  53.2161   4.3506 0001060  82.8250 277.2863 15.08857628 64842,6917.827,95.436,540.425,538.958,0.0
51982.0,STARLINK-3650,PAYLOAD,2023-05-10 22:05:40,15.08855719,0.0001185,53.2165,359.8885,90.3683,269.7445,0.0013371,0.00021065,0.0,0 STARLINK-3650,1 51982U 22025AC  23130.92060611  .00021065  00000-0  13371-2 0  9991,2 51982  53.2165 359.8885 0001185  90.3683 269.7445 15.08855719 64993,6917.832,95.437,540.517,538.878,0.0
51982.0,STARLINK-3650,PAYLOAD,2023-05-11 21:56:27,15.08841253,8.1e-05,53.2159,355.4295,81.7047,278.4037,0.00051719,7.953e-05,0.0,0 STARLINK-3650,1 51982U 22025AC  23131.91420944  .00007953  00000-0  51719-3 0  9999,2 51982  53.2159 355.4295 0000810  81.7047 278.4037 15.08841253 65145,6917.877,95.437,540.302,539.181,0.0
51982.0,STARLINK-3650,PAYLOAD,2023-05-12 18:36:28,15.08841086,7.26e-05,53.2162,351.5643,64.8239,295.2828,0.00024822,3.665e-05,0.0,0 STARLINK-3650,1 51982U 22025AC  23132.77533126  .00003665  00000-0  24822-3 0  9992,2 51982  53.2162 351.5643 0000726  64.8239 295.2828 15.08841086 66379,6917.877,95.437,540.244,539.24,0.0
51982.0,STARLINK-3650,PAYLOAD,2023-05-12 21:47:14,15.08847553,6.37e-05,53.2161,350.9696,67.3385,292.7675,0.00035782,5.413e-05,0.0,0 STARLINK-3650,1 51982U 22025AC  23132.90780767  .00005413  00000-0  35782-3 0  9992,2 51982  53.2161 350.9696 0000637  67.3385 292.7675 15.08847553 65297,6917.857,95.437,540.163,539.282,0.0
51982.0,STARLINK-3650,PAYLOAD,2023-05-13 20:02:39,15.08839133,5.47e-05,53.2153,346.8073,85.8501,274.2554,0.00011778,1.587e-05,0.0,0 STARLINK-3650,1 51982U 22025AC  23133.83517397  .00001587  00000-0  11778-3 0  9999,2 51982  53.2153 346.8073 0000547  85.8501 274.2554 15.08839133 66530,6917.883,95.438,540.126,539.37,0.0
51982.0,STARLINK-3650,PAYLOAD,2023-05-13 21:38:02,15.08840629,5.81e-05,53.2157,346.5112,101.6097,258.4961,0.0001428,1.986e-05,0.0,0 STARLINK-3650,1 51982U 22025AC  23133.90141308  .00001986  00000-0  14280-3 0  9996,2 51982  53.2157 346.5112 0000581 101.6097 258.4961 15.08840629 65447,6917.878,95.438,540.145,539.342,0.0
51982.0,STARLINK-3650,PAYLOAD,2023-05-14 21:28:49,15.08841743,7.42e-05,53.2163,342.0523,122.672,237.4344,0.00039005,5.926e-05,0.0,0 STARLINK-3650,1 51982U 22025AC  23134.89501614  .00005926  00000-0  39005-3 0  9995,2 51982  53.2163 342.0523 0000742 122.6720 237.4344 15.08841743 65592,6917.875,95.437,540.253,539.227,0.0
51982.0,STARLINK-3650,PAYLOAD,2023-05-14 23:04:12,15.08842345,8.42e-05,53.2162,341.7546,128.0085,232.0983,0.00067381,0.00010453,0.0,0 STARLINK-3650,1 51982U 22025AC  23134.96125728  .00010453  00000-0  67381-3 0  9990,2 51982  53.2162 341.7546 0000842 128.0085 232.0983 15.08842345 66700,6917.873,95.437,540.321,539.156,0.0
